{
    "links": {
        "self": "http://www.neowsapp.com/rest/v1/neo/3799270?api_key=iIulBulltgU6a56xZRHN4H3l9WmuAYTsLGpBGhQ2"
    },
    "id": "3799270",
    "neo_reference_id": "3799270",
    "name": "(2018 CY1)",
    "designation": "2018 CY1",
    "nasa_jpl_url": "http://ssd.jpl.nasa.gov/sbdb.cgi?sstr=3799270",
    "absolute_magnitude_h": 25.7,
    "estimated_diameter": {
        "kilometers": {
            "estimated_diameter_min": 0.0192555078,
            "estimated_diameter_max": 0.0430566244
        },
        "meters": {
            "estimated_diameter_min": 19.2555078188,
            "estimated_diameter_max": 43.0566244241
        },
        "miles": {
            "estimated_diameter_min": 0.0119648141,
            "estimated_diameter_max": 0.0267541378
        },
        "feet": {
            "estimated_diameter_min": 63.1742402722,
            "estimated_diameter_max": 141.2618956756
        }
    },
    "is_potentially_hazardous_asteroid": false,
    "close_approach_data": [
        {
            "close_approach_date": "2018-02-04",
            "close_approach_date_full": "2018-Feb-04 03:29",
            "epoch_date_close_approach": 1517714940000,
            "relative_velocity": {
                "kilometers_per_second": "7.3878990097",
                "kilometers_per_hour": "26596.4364349753",
                "miles_per_hour": "16525.9912948323"
            },
            "miss_distance": {
                "astronomical": "0.0523746974",
                "lunar": "20.3737572886",
                "kilometers": "7835143.172934538",
                "miles": "4868532.2108231044"
            },
            "orbiting_body": "Earth"
        },
        {
            "close_approach_date": "2116-05-11",
            "close_approach_date_full": "2116-May-11 07:12",
            "epoch_date_close_approach": 4618624320000,
            "relative_velocity": {
                "kilometers_per_second": "4.9991817454",
                "kilometers_per_hour": "17997.0542835729",
                "miles_per_hour": "11182.6696463678"
            },
            "miss_distance": {
                "astronomical": "1.5925791808",
                "lunar": "619.5133013312",
                "kilometers": "238246453.254024896",
                "miles": "148039481.3700837248"
            },
            "orbiting_body": "Juptr"
        }
    ],
    "orbital_data": {
        "orbit_id": "3",
        "orbit_determination_date": "2018-02-26 06:22:18",
        "first_observation_date": "2018-02-04",
        "last_observation_date": "2018-02-25",
        "data_arc_in_days": 21,
        "observations_used": 40,
        "orbit_uncertainty": "7",
        "minimum_orbit_intersection": ".0444958",
        "jupiter_tisserand_invariant": "3.226",
        "epoch_osculation": "2459000.5",
        "eccentricity": ".5839848564529105",
        "semi_major_axis": "2.461312823295489",
        "inclination": "5.037841462256827",
        "ascending_node_longitude": "324.3137318331057",
        "orbital_period": "1410.420619292717",
        "perihelion_distance": "1.023943407497565",
        "perihelion_argument": "162.0429607260128",
        "aphelion_distance": "3.898682239093413",
        "perihelion_time": "2459558.572432422839",
        "mean_anomaly": "217.5559142258071",
        "mean_motion": ".2552430069978197",
        "equinox": "J2000",
        "orbit_class": {
            "orbit_class_type": "AMO",
            "orbit_class_description": "Near-Earth asteroid orbits similar to that of 1221 Amor",
            "orbit_class_range": "1.017 AU < q (perihelion) < 1.3 AU"
        }
    },
    "is_sentry_object": false
}